$$SOE
2461295.500000000, A.D. 2026-Sep-12 00:00:00.0000, 4.971482486758074E+07, -4.266040266518851E+08, -1.776052245433286E+07,
2461302.500000000, A.D. 2026-Sep-19 00:00:00.0000, 6.031213463093775E+07, -4.258249101378047E+08, -1.838957319521138E+07,
2461309.500000000, A.D. 2026-Sep-26 00:00:00.0000, 7.087276211586261E+07, -4.247866781640074E+08, -1.900743262134722E+07,
2461316.500000000, A.D. 2026-Oct-03 00:00:00.0000, 8.139046235123281E+07, -4.234910601428472E+08, -1.961377366782001E+07,
2461323.500000000, A.D. 2026-Oct-10 00:00:00.0000, 9.185906987174629E+07, -4.219399288948538E+08, -2.020827912305853E+07,
2461330.500000000, A.D. 2026-Oct-17 00:00:00.0000, 1.022725014129606E+08, -4.201352969527934E+08, -2.079064166849726E+07,
2461337.500000000, A.D. 2026-Oct-24 00:00:00.0000, 1.126247584341343E+08, -4.180793129513854E+08, -2.136056391559237E+07,
2461344.500000000, A.D. 2026-Oct-31 00:00:00.0000, 1.229099295722084E+08, -4.157742581752977E+08, -2.191775845506567E+07,
2461351.500000000, A.D. 2026-Nov-07 00:00:00.0000, 1.331221933706028E+08, -4.132225431980647E+08, -2.246194794372392E+07,
2461358.500000000, A.D. 2026-Nov-14 00:00:00.0000, 1.432558214878241E+08, -4.104267037313569E+08, -2.299286517498040E+07,
2461365.500000000, A.D. 2026-Nov-21 00:00:00.0000, 1.533051805776356E+08, -4.073893950085139E+08, -2.351025291134369E+07,
2461372.500000000, A.D. 2026-Nov-28 00:00:00.0000, 1.632647318462479E+08, -4.041133877141137E+08, -2.401386363330239E+07,
2461379.500000000, A.D. 2026-Dec-05 00:00:00.0000, 1.731290319108861E+08, -4.006015661192204E+08, -2.450345959040195E+07,
2461386.500000000, A.D. 2026-Dec-12 00:00:00.0000, 1.828927351300954E+08, -3.968569253161581E+08, -2.497881291559947E+07,
2461393.500000000, A.D. 2026-Dec-19 00:00:00.0000, 1.925505955233883E+08, -3.928825675513340E+08, -2.543970562944871E+07,
2461400.500000000, A.D. 2026-Dec-26 00:00:00.0000, 2.020974681423524E+08, -3.886816985282692E+08, -2.588592959217781E+07,
2461407.500000000, A.D. 2027-Jan-02 00:00:00.0000, 2.115283101733590E+08, -3.842576238754200E+08, -2.631728644478416E+07,
2461414.500000000, A.D. 2027-Jan-09 00:00:00.0000, 2.208381818926539E+08, -3.796137457620005E+08, -2.673358754848555E+07,
2461421.500000000, A.D. 2027-Jan-16 00:00:00.0000, 2.300222475123506E+08, -3.747535596558002E+08, -2.713465392534912E+07,
2461428.500000000, A.D. 2027-Jan-23 00:00:00.0000, 2.390757759662418E+08, -3.696806512646529E+08, -2.752031620790786E+07,
2461435.500000000, A.D. 2027-Jan-30 00:00:00.0000, 2.479941418265829E+08, -3.643986937110769E+08, -2.789041461930785E+07,
2461442.500000000, A.D. 2027-Feb-06 00:00:00.0000, 2.567728267806078E+08, -3.589114446025605E+08, -2.824479899563193E+07,
2461449.500000000, A.D. 2027-Feb-13 00:00:00.0000, 2.654074212101626E+08, -3.532227417811929E+08, -2.858332870900086E+07,
2461456.500000000, A.D. 2027-Feb-20 00:00:00.0000, 2.738936235131148E+08, -3.473364985462037E+08, -2.890587233978297E+07,
2461463.500000000, A.D. 2027-Feb-27 00:00:00.0000, 2.822272385647218E+08, -3.412567015632585E+08, -2.921230748905459E+07,
2461470.500000000, A.D. 2027-Mar-06 00:00:00.0000, 2.904041783410613E+08, -3.349874095377107E+08, -2.950252085152547E+07,
2461477.500000000, A.D. 2027-Mar-13 00:00:00.0000, 2.984204631093686E+08, -3.285327506035146E+08, -2.977640823521934E+07,
2461484.500000000, A.D. 2027-Mar-20 00:00:00.0000, 3.062722220606225E+08, -3.218969192638708E+08, -3.003387449304295E+07,
2461491.500000000, A.D. 2027-Mar-27 00:00:00.0000, 3.139556935908511E+08, -3.150841734336062E+08, -3.027483343009278E+07,
2461498.500000000, A.D. 2027-Apr-03 00:00:00.0000, 3.214672254383059E+08, -3.080988316319935E+08, -3.049920770961206E+07,
2461505.500000000, A.D. 2027-Apr-10 00:00:00.0000, 3.288032747413981E+08, -3.009452703039286E+08, -3.070692876165955E+07,
2461512.500000000, A.D. 2027-Apr-17 00:00:00.0000, 3.359604080419704E+08, -2.936279212843126E+08, -3.089793669789381E+07,
2461519.500000000, A.D. 2027-Apr-24 00:00:00.0000, 3.429353013144450E+08, -2.861512694669567E+08, -3.107218024489477E+07,
2461526.500000000, A.D. 2027-May-01 00:00:00.0000, 3.497247403220127E+08, -2.785198506475091E+08, -3.122961672122280E+07,
2461533.500000000, A.D. 2027-May-08 00:00:00.0000, 3.563256216109985E+08, -2.707382487890451E+08, -3.137021202529700E+07,
2461540.500000000, A.D. 2027-May-15 00:00:00.0000, 3.627349526521756E+08, -2.628110917559083E+08, -3.149394041912577E+07,
2461547.500000000, A.D. 2027-May-22 00:00:00.0000, 3.689498495699752E+08, -2.547430481077107E+08, -3.160078417660436E+07,
2461554.500000000, A.D. 2027-May-29 00:00:00.0000, 3.749675358189353E+08, -2.465388264211738E+08, -3.169073352442898E+07,
2461561.500000000, A.D. 2027-Jun-05 00:00:00.0000, 3.807853426960999E+08, -2.382031740076184E+08, -3.176378670101435E+07,
2461568.500000000, A.D. 2027-Jun-12 00:00:00.0000, 3.864007096854994E+08, -2.297408745946327E+08, -3.181994991409384E+07,
2461575.500000000, A.D. 2027-Jun-19 00:00:00.0000, 3.918111843062967E+08, -2.211567459067561E+08, -3.185923724302655E+07,
2461582.500000000, A.D. 2027-Jun-26 00:00:00.0000, 3.970144217461474E+08, -2.124556374054710E+08, -3.188167053269027E+07,
2461589.500000000, A.D. 2027-Jul-03 00:00:00.0000, 4.020081844140921E+08, -2.036424281787471E+08, -3.188727929025625E+07,
2461596.500000000, A.D. 2027-Jul-10 00:00:00.0000, 4.067903414521273E+08, -1.947220249699191E+08, -3.187610058736610E+07,
2461603.500000000, A.D. 2027-Jul-17 00:00:00.0000, 4.113588682439422E+08, -1.856993603834037E+08, -3.184817897407445E+07,
2461610.500000000, A.D. 2027-Jul-24 00:00:00.0000, 4.157118460787417E+08, -1.765793913285207E+08, -3.180356642388920E+07,
2461617.500000000, A.D. 2027-Jul-31 00:00:00.0000, 4.198474623828440E+08, -1.673670974635162E+08, -3.174232232821738E+07,
2461624.500000000, A.D. 2027-Aug-07 00:00:00.0000, 4.237640113211522E+08, -1.580674784855560E+08, -3.166451342754762E+07,
2461631.500000000, A.D. 2027-Aug-14 00:00:00.0000, 4.274598924714251E+08, -1.486855505194920E+08, -3.157021348906081E+07,
2461638.500000000, A.D. 2027-Aug-21 00:00:00.0000, 4.309336081910555E+08, -1.392263449698074E+08, -3.145950306240191E+07,
2461645.500000000, A.D. 2027-Aug-28 00:00:00.0000, 4.341837631068112E+08, -1.296949086306887E+08, -3.133246952993590E+07,
2461652.500000000, A.D. 2027-Sep-04 00:00:00.0000, 4.372090645470009E+08, -1.200963025494025E+08, -3.118920713866056E+07,
2461659.500000000, A.D. 2027-Sep-11 00:00:00.0000, 4.400083225220859E+08, -1.104356003023345E+08, -3.102981693995221E+07,
2461666.500000000, A.D. 2027-Sep-18 00:00:00.0000, 4.425804493879585E+08, -1.007178863317703E+08, -3.085440670265010E+07,
2461673.500000000, A.D. 2027-Sep-25 00:00:00.0000, 4.449244594218014E+08, -9.094825441848736E+07, -3.066309082702425E+07,
2461680.500000000, A.D. 2027-Oct-02 00:00:00.0000, 4.470394683870324E+08, -8.113180625983226E+07, -3.045599026454437E+07,
2461687.500000000, A.D. 2027-Oct-09 00:00:00.0000, 4.489246931117473E+08, -7.127365015520909E+07, -3.023323244623721E+07,
2461694.500000000, A.D. 2027-Oct-16 00:00:00.0000, 4.505794511459057E+08, -6.137889985183375E+07, -2.999495123030514E+07,
2461701.500000000, A.D. 2027-Oct-23 00:00:00.0000, 4.520031607583929E+08, -5.145267355489188E+07, -2.974128689365409E+07,
2461708.500000000, A.D. 2027-Oct-30 00:00:00.0000, 4.531953416487718E+08, -4.150009248957512E+07, -2.947238615198787E+07,
2461715.500000000, A.D. 2027-Nov-06 00:00:00.0000, 4.541556152116709E+08, -3.152627788365318E+07, -2.918840200959133E+07,
2461722.500000000, A.D. 2027-Nov-13 00:00:00.0000, 4.548837023718876E+08, -2.153634844521642E+07, -2.888949342653215E+07,
2461729.500000000, A.D. 2027-Nov-20 00:00:00.0000, 4.553794218929747E+08, -1.153542052125371E+07, -2.857582524818999E+07,
2461736.500000000, A.D. 2027-Nov-27 00:00:00.0000, 4.556426907756116E+08, -1.528607970647957E+06, -2.824756830307368E+07,
2461743.500000000, A.D. 2027-Dec-04 00:00:00.0000, 4.556735247224670E+08, 8.478979165006476E+06, -2.790489940848797E+07,
2461750.500000000, A.D. 2027-Dec-11 00:00:00.0000, 4.554720381201422E+08, 1.848223623080102E+07, -2.754800131223658E+07,
2461757.500000000, A.D. 2027-Dec-18 00:00:00.0000, 4.550384438140088E+08, 2.847606543050006E+07, -2.717706262318561E+07,
2461764.500000000, A.D. 2027-Dec-25 00:00:00.0000, 4.543730528280942E+08, 3.845537720008981E+07, -2.679227774465272E+07,
2461771.500000000, A.D. 2028-Jan-01 00:00:00.0000, 4.534762740706930E+08, 4.841509149850389E+07, -2.639384681300524E+07,
$$EOE